[{"OBJECT_NAME":"STARLINK-32122","OBJECT_ID":"2024-132H","EPOCH":"2026-03-09T09:16:58.477152","MEAN_MOTION":15.30187053,"ECCENTRICITY":0.0001171,"INCLINATION":53.1611,"RA_OF_ASC_NODE":53.8644,"ARG_OF_PERICENTER":84.9791,"MEAN_ANOMALY":275.1343,"EPHEMERIS_TYPE":0,"CLASSIFICATION_TYPE":"U","NORAD_CAT_ID":60285,"ELEMENT_SET_NO":999,"REV_AT_EPOCH":9151,"BSTAR":1.7539161e-5,"MEAN_MOTION_DOT":1.6e-6,"MEAN_MOTION_DDOT":0},{"OBJECT_NAME":"ELECTRON KICK STAGE R\/B","OBJECT_ID":"2025-061J","EPOCH":"2026-03-09T21:50:35.145600","MEAN_MOTION":15.31602074,"ECCENTRICITY":0.00402669,"INCLINATION":97.5479,"RA_OF_ASC_NODE":52.3854,"ARG_OF_PERICENTER":150.2628,"MEAN_ANOMALY":210.0914,"EPHEMERIS_TYPE":0,"CLASSIFICATION_TYPE":"U","NORAD_CAT_ID":63359,"ELEMENT_SET_NO":999,"REV_AT_EPOCH":5306,"BSTAR":0.0006963674,"MEAN_MOTION_DOT":0.00021749,"MEAN_MOTION_DDOT":0}]
